HERMES-3                
1 63835U 25052BR  26068.93751242  .00020316  00000+0  69958-3 0  9995
2 63835  97.3987 324.6131 0007993 112.9583 247.2502 15.30039785 54863
STARLINK-34652          
1 64772U 25147T   26068.74013290  .00059951  00000+0  20167-2 0  9999
2 64772  53.1597 242.2231 0001189  57.1367 302.9748 15.30252594 38765
