[{"OBJECT_NAME":"HERMES-3","OBJECT_ID":"2025-052BR","EPOCH":"2026-03-09T22:30:01.073952","MEAN_MOTION":15.30039786,"ECCENTRICITY":0.00079928,"INCLINATION":97.3987,"RA_OF_ASC_NODE":324.6131,"ARG_OF_PERICENTER":112.9583,"MEAN_ANOMALY":247.2502,"EPHEMERIS_TYPE":0,"CLASSIFICATION_TYPE":"U","NORAD_CAT_ID":63835,"ELEMENT_SET_NO":999,"REV_AT_EPOCH":5486,"BSTAR":0.0006995793,"MEAN_MOTION_DOT":0.00020316,"MEAN_MOTION_DDOT":0},{"OBJECT_NAME":"STARLINK-34652","OBJECT_ID":"2025-147T","EPOCH":"2026-03-09T17:45:47.482560","MEAN_MOTION":15.30252594,"ECCENTRICITY":0.00011897,"INCLINATION":53.1597,"RA_OF_ASC_NODE":242.2231,"ARG_OF_PERICENTER":57.1367,"MEAN_ANOMALY":302.9748,"EPHEMERIS_TYPE":0,"CLASSIFICATION_TYPE":"U","NORAD_CAT_ID":64772,"ELEMENT_SET_NO":999,"REV_AT_EPOCH":3876,"BSTAR":0.002016719,"MEAN_MOTION_DOT":0.00059951,"MEAN_MOTION_DDOT":0}]
